[
  {
    "OBJECT_NAME": "STARLINK-4351",
    "OBJECT_ID": "22084E",
    "EPOCH": "2025-11-11T03:18:41.370912",
    "MEAN_MOTION": 15.01262253,
    "ECCENTRICITY": 0.0003713,
    "INCLINATION": 97.6037,
    "RA_OF_ASC_NODE": 14.1329,
    "ARG_OF_PERICENTER": 172.5483,
    "MEAN_ANOMALY": 187.5797,
    "EPHEMERIS_TYPE": 0,
    "CLASSIFICATION_TYPE": "U",
    "NORAD_CAT_ID": 53193,
    "ELEMENT_SET_NO": 999,
    "REV_AT_EPOCH": 18254,
    "BSTAR": 0.0,
    "MEAN_MOTION_DOT": -3.28e-06,
    "MEAN_MOTION_DDOT": 0.0,
    "TLE_LINE1": "1 53193U 22084E   25315.13797883 -.00000328  00000+0 -20987-4 0  9993",
    "TLE_LINE2": "2 53193  97.6037  14.1329 0003713 172.5483 187.5797 15.01262253182540",
    "COMMENT": "Grouped by shell and plane from TLE"
  },
  {
    "OBJECT_NAME": "STARLINK-4382",
    "OBJECT_ID": "22084F",
    "EPOCH": "2025-11-11T02:57:05.315616",
    "MEAN_MOTION": 15.05668804,
    "ECCENTRICITY": 0.0001621,
    "INCLINATION": 97.6036,
    "RA_OF_ASC_NODE": 14.3001,
    "ARG_OF_PERICENTER": 100.1616,
    "MEAN_ANOMALY": 259.9793,
    "EPHEMERIS_TYPE": 0,
    "CLASSIFICATION_TYPE": "U",
    "NORAD_CAT_ID": 53194,
    "ELEMENT_SET_NO": 999,
    "REV_AT_EPOCH": 18153,
    "BSTAR": 0.0,
    "MEAN_MOTION_DOT": -1.916e-05,
    "MEAN_MOTION_DDOT": 0.0,
    "TLE_LINE1": "1 53194U 22084F   25315.12297819 -.00001916  00000+0 -12853-3 0  9993",
    "TLE_LINE2": "2 53194  97.6036  14.3001 0001621 100.1616 259.9793 15.05668804181534",
    "COMMENT": "Grouped by shell and plane from TLE"
  },
  {
    "OBJECT_NAME": "STARLINK-4403",
    "OBJECT_ID": "22084J",
    "EPOCH": "2025-11-11T03:02:41.173152",
    "MEAN_MOTION": 15.01275339,
    "ECCENTRICITY": 0.0001911,
    "INCLINATION": 97.6061,
    "RA_OF_ASC_NODE": 14.1271,
    "ARG_OF_PERICENTER": 203.3597,
    "MEAN_ANOMALY": 156.7541,
    "EPHEMERIS_TYPE": 0,
    "CLASSIFICATION_TYPE": "U",
    "NORAD_CAT_ID": 53197,
    "ELEMENT_SET_NO": 999,
    "REV_AT_EPOCH": 18152,
    "BSTAR": 0.0,
    "MEAN_MOTION_DOT": -1.9e-06,
    "MEAN_MOTION_DDOT": 0.0,
    "TLE_LINE1": "1 53197U 22084J   25315.12686543 -.00000190  00000+0 -10256-4 0  9991",
    "TLE_LINE2": "2 53197  97.6061  14.1271 0001911 203.3597 156.7541 15.01275339181525",
    "COMMENT": "Grouped by shell and plane from TLE"
  },
  {
    "OBJECT_NAME": "STARLINK-4385",
    "OBJECT_ID": "22084K",
    "EPOCH": "2025-11-11T03:08:01.773312",
    "MEAN_MOTION": 15.01279259,
    "ECCENTRICITY": 0.0001697,
    "INCLINATION": 97.6042,
    "RA_OF_ASC_NODE": 14.126,
    "ARG_OF_PERICENTER": 120.9249,
    "MEAN_ANOMALY": 239.2143,
    "EPHEMERIS_TYPE": 0,
    "CLASSIFICATION_TYPE": "U",
    "NORAD_CAT_ID": 53198,
    "ELEMENT_SET_NO": 999,
    "REV_AT_EPOCH": 18218,
    "BSTAR": 0.00015946,
    "MEAN_MOTION_DOT": 1.991e-05,
    "MEAN_MOTION_DDOT": 0.0,
    "TLE_LINE1": "1 53198U 22084K   25315.13057608  .00001991  00000+0  15946-3 0  9995",
    "TLE_LINE2": "2 53198  97.6042  14.1260 0001697 120.9249 239.2143 15.01279259182185",
    "COMMENT": "Grouped by shell and plane from TLE"
  },
  {
    "OBJECT_NAME": "STARLINK-4395",
    "OBJECT_ID": "22084L",
    "EPOCH": "2025-11-11T03:56:54.292128",
    "MEAN_MOTION": 15.0566499,
    "ECCENTRICITY": 0.0001351,
    "INCLINATION": 97.6025,
    "RA_OF_ASC_NODE": 14.3748,
    "ARG_OF_PERICENTER": 85.7545,
    "MEAN_ANOMALY": 274.3836,
    "EPHEMERIS_TYPE": 0,
    "CLASSIFICATION_TYPE": "U",
    "NORAD_CAT_ID": 53199,
    "ELEMENT_SET_NO": 999,
    "REV_AT_EPOCH": 18154,
    "BSTAR": 0.0,
    "MEAN_MOTION_DOT": -2.274e-05,
    "MEAN_MOTION_DDOT": 0.0,
    "TLE_LINE1": "1 53199U 22084L   25315.16451727 -.00002274  00000+0 -15338-3 0  9991",
    "TLE_LINE2": "2 53199  97.6025  14.3748 0001351  85.7545 274.3836 15.05664990181546",
    "COMMENT": "Grouped by shell and plane from TLE"
  },
  {
    "OBJECT_NAME": "STARLINK-4417",
    "OBJECT_ID": "22084M",
    "EPOCH": "2025-11-11T04:24:49.109472",
    "MEAN_MOTION": 15.0565057,
    "ECCENTRICITY": 9.31e-05,
    "INCLINATION": 97.6053,
    "RA_OF_ASC_NODE": 14.3588,
    "ARG_OF_PERICENTER": 97.7201,
    "MEAN_ANOMALY": 262.4131,
    "EPHEMERIS_TYPE": 0,
    "CLASSIFICATION_TYPE": "U",
    "NORAD_CAT_ID": 53200,
    "ELEMENT_SET_NO": 999,
    "REV_AT_EPOCH": 18220,
    "BSTAR": 9.1592e-05,
    "MEAN_MOTION_DOT": 1.261e-05,
    "MEAN_MOTION_DDOT": 0.0,
    "TLE_LINE1": "1 53200U 22084M   25315.18390173  .00001261  00000+0  91592-4 0  9993",
    "TLE_LINE2": "2 53200  97.6053  14.3588 0000931  97.7201 262.4131 15.05650570182206",
    "COMMENT": "Grouped by shell and plane from TLE"
  },
  {
    "OBJECT_NAME": "STARLINK-4405",
    "OBJECT_ID": "22084N",
    "EPOCH": "2025-11-11T03:13:03.101952",
    "MEAN_MOTION": 15.05657217,
    "ECCENTRICITY": 5.5e-05,
    "INCLINATION": 97.6024,
    "RA_OF_ASC_NODE": 14.4095,
    "ARG_OF_PERICENTER": 104.4536,
    "MEAN_ANOMALY": 255.6752,
    "EPHEMERIS_TYPE": 0,
    "CLASSIFICATION_TYPE": "U",
    "NORAD_CAT_ID": 53201,
    "ELEMENT_SET_NO": 999,
    "REV_AT_EPOCH": 18154,
    "BSTAR": 0.00033454000000000003,
    "MEAN_MOTION_DOT": 4.77e-05,
    "MEAN_MOTION_DDOT": 0.0,
    "TLE_LINE1": "1 53201U 22084N   25315.13406368  .00004770  00000+0  33454-3 0  9993",
    "TLE_LINE2": "2 53201  97.6024  14.4095 0000550 104.4536 255.6752 15.05657217181547",
    "COMMENT": "Grouped by shell and plane from TLE"
  },
  {
    "OBJECT_NAME": "STARLINK-4411",
    "OBJECT_ID": "22084P",
    "EPOCH": "2025-11-11T03:41:00.660768",
    "MEAN_MOTION": 15.05620218,
    "ECCENTRICITY": 0.0001301,
    "INCLINATION": 97.6065,
    "RA_OF_ASC_NODE": 14.3971,
    "ARG_OF_PERICENTER": 45.9195,
    "MEAN_ANOMALY": 314.2138,
    "EPHEMERIS_TYPE": 0,
    "CLASSIFICATION_TYPE": "U",
    "NORAD_CAT_ID": 53202,
    "ELEMENT_SET_NO": 999,
    "REV_AT_EPOCH": 18154,
    "BSTAR": 0.0,
    "MEAN_MOTION_DOT": -4.203e-05,
    "MEAN_MOTION_DDOT": 0.0,
    "TLE_LINE1": "1 53202U 22084P   25315.15347987 -.00004203  00000+0 -28748-3 0  9990",
    "TLE_LINE2": "2 53202  97.6065  14.3971 0001301  45.9195 314.2138 15.05620218181541",
    "COMMENT": "Grouped by shell and plane from TLE"
  },
  {
    "OBJECT_NAME": "STARLINK-4409",
    "OBJECT_ID": "22084Q",
    "EPOCH": "2025-11-11T03:36:58.669920",
    "MEAN_MOTION": 15.05647085,
    "ECCENTRICITY": 0.0001537,
    "INCLINATION": 97.6031,
    "RA_OF_ASC_NODE": 14.3829,
    "ARG_OF_PERICENTER": 80.449,
    "MEAN_ANOMALY": 279.6911,
    "EPHEMERIS_TYPE": 0,
    "CLASSIFICATION_TYPE": "U",
    "NORAD_CAT_ID": 53203,
    "ELEMENT_SET_NO": 999,
    "REV_AT_EPOCH": 18154,
    "BSTAR": 2.2897e-05,
    "MEAN_MOTION_DOT": 2.7e-06,
    "MEAN_MOTION_DDOT": 0.0,
    "TLE_LINE1": "1 53203U 22084Q   25315.15067905  .00000270  00000+0  22897-4 0  9998",
    "TLE_LINE2": "2 53203  97.6031  14.3829 0001537  80.4490 279.6911 15.05647085181544",
    "COMMENT": "Grouped by shell and plane from TLE"
  },
  {
    "OBJECT_NAME": "STARLINK-4410",
    "OBJECT_ID": "22084R",
    "EPOCH": "2025-11-11T02:55:04.047168",
    "MEAN_MOTION": 15.01293613,
    "ECCENTRICITY": 0.0002107,
    "INCLINATION": 97.6071,
    "RA_OF_ASC_NODE": 14.1331,
    "ARG_OF_PERICENTER": 164.608,
    "MEAN_ANOMALY": 195.5209,
    "EPHEMERIS_TYPE": 0,
    "CLASSIFICATION_TYPE": "U",
    "NORAD_CAT_ID": 53204,
    "ELEMENT_SET_NO": 999,
    "REV_AT_EPOCH": 18218,
    "BSTAR": 0.0011926,
    "MEAN_MOTION_DOT": 0.00015306,
    "MEAN_MOTION_DDOT": 0.0,
    "TLE_LINE1": "1 53204U 22084R   25315.12157462  .00015306  00000+0  11926-2 0  9999",
    "TLE_LINE2": "2 53204  97.6071  14.1331 0002107 164.6080 195.5209 15.01293613182186",
    "COMMENT": "Grouped by shell and plane from TLE"
  },
  {
    "OBJECT_NAME": "STARLINK-4397",
    "OBJECT_ID": "22084S",
    "EPOCH": "2025-11-11T03:29:01.074912",
    "MEAN_MOTION": 15.05644098,
    "ECCENTRICITY": 9.04e-05,
    "INCLINATION": 97.6025,
    "RA_OF_ASC_NODE": 14.3803,
    "ARG_OF_PERICENTER": 103.3317,
    "MEAN_ANOMALY": 256.8011,
    "EPHEMERIS_TYPE": 0,
    "CLASSIFICATION_TYPE": "U",
    "NORAD_CAT_ID": 53205,
    "ELEMENT_SET_NO": 999,
    "REV_AT_EPOCH": 18154,
    "BSTAR": 0.00017435,
    "MEAN_MOTION_DOT": 2.456e-05,
    "MEAN_MOTION_DDOT": 0.0,
    "TLE_LINE1": "1 53205U 22084S   25315.14515133  .00002456  00000+0  17435-3 0  9999",
    "TLE_LINE2": "2 53205  97.6025  14.3803 0000904 103.3317 256.8011 15.05644098181540",
    "COMMENT": "Grouped by shell and plane from TLE"
  },
  {
    "OBJECT_NAME": "STARLINK-4408",
    "OBJECT_ID": "22084T",
    "EPOCH": "2025-11-11T03:48:56.227968",
    "MEAN_MOTION": 15.05649205,
    "ECCENTRICITY": 0.0001723,
    "INCLINATION": 97.6018,
    "RA_OF_ASC_NODE": 14.3726,
    "ARG_OF_PERICENTER": 87.2897,
    "MEAN_ANOMALY": 272.8527,
    "EPHEMERIS_TYPE": 0,
    "CLASSIFICATION_TYPE": "U",
    "NORAD_CAT_ID": 53206,
    "ELEMENT_SET_NO": 999,
    "REV_AT_EPOCH": 18154,
    "BSTAR": 3.2878000000000006e-05,
    "MEAN_MOTION_DOT": 4.14e-06,
    "MEAN_MOTION_DDOT": 0.0,
    "TLE_LINE1": "1 53206U 22084T   25315.15898412  .00000414  00000+0  32878-4 0  9996",
    "TLE_LINE2": "2 53206  97.6018  14.3726 0001723  87.2897 272.8527 15.05649205181545",
    "COMMENT": "Grouped by shell and plane from TLE"
  },
  {
    "OBJECT_NAME": "STARLINK-4413",
    "OBJECT_ID": "22084U",
    "EPOCH": "2025-11-11T04:17:21.152256",
    "MEAN_MOTION": 15.01263056,
    "ECCENTRICITY": 0.0002492,
    "INCLINATION": 97.6048,
    "RA_OF_ASC_NODE": 14.1805,
    "ARG_OF_PERICENTER": 90.566,
    "MEAN_ANOMALY": 269.585,
    "EPHEMERIS_TYPE": 0,
    "CLASSIFICATION_TYPE": "U",
    "NORAD_CAT_ID": 53207,
    "ELEMENT_SET_NO": 999,
    "REV_AT_EPOCH": 18153,
    "BSTAR": 7.507500000000001e-05,
    "MEAN_MOTION_DOT": 9.06e-06,
    "MEAN_MOTION_DDOT": 0.0,
    "TLE_LINE1": "1 53207U 22084U   25315.17871704  .00000906  00000+0  75075-4 0  9996",
    "TLE_LINE2": "2 53207  97.6048  14.1805 0002492  90.5660 269.5850 15.01263056181537",
    "COMMENT": "Grouped by shell and plane from TLE"
  }
]